OBJECT_NAME,OBJECT_ID,EPOCH,MEAN_MOTION,ECCENTRICITY,INCLINATION,RA_OF_ASC_NODE,ARG_OF_PERICENTER,MEAN_ANOMALY,EPHEMERIS_TYPE,CLASSIFICATION_TYPE,NORAD_CAT_ID,ELEMENT_SET_NO,REV_AT_EPOCH,BSTAR,MEAN_MOTION_DOT,MEAN_MOTION_DDOT
GUOWANG OBJECT D,2026-137D,2026-06-26T23:54:59.635584,13.89828550,.0011102,49.9958,216.2639,257.2979,102.6679,0,U,69575,999,139,.14959E-3,.39E-6,0
GUOWANG OBJECT E,2026-137E,2026-06-27T01:37:04.916928,13.90071848,.0011459,50.0017,215.9899,261.0191,98.9411,0,U,69576,999,140,.12706E-3,.12E-6,0
GUOWANG OBJECT F,2026-137F,2026-06-26T20:25:09.564096,13.90327837,.0010612,49.9973,216.8409,257.8102,102.1608,0,U,69577,999,137,.12509E-3,.1E-6,0
GUOWANG OBJECT G,2026-137G,2026-06-26T20:23:58.915680,13.90789764,.0010927,49.9960,216.8226,260.4496,99.5168,0,U,69578,999,137,.11154E-3,-.6E-7,0
GUOWANG OBJECT H,2026-137H,2026-06-25T11:38:14.756064,13.92076941,.0010122,49.9967,222.2731,259.8752,100.1006,0,U,69579,999,118,.1427E-3,.37E-6,0
GUOWANG OBJECT J,2026-137J,2026-06-26T20:20:45.696768,13.92262275,.0009809,49.9963,216.8154,259.3048,100.6747,0,U,69580,999,137,.1342E-3,.26E-6,0
CENTISPACE-1 GROUP 05 OBJECT A,2026-138A,2026-06-26T21:16:51.458880,14.15476108,.001013,55.1416,245.3462,301.1301,58.8679,0,U,69582,999,139,-.11512E-3,-.379E-5,0
CENTISPACE-1 GROUP 05 OBJECT B,2026-138B,2026-06-26T21:15:02.933568,14.15657211,.00090813,55.1415,245.3373,300.8537,59.1544,0,U,69583,999,139,-.10558008E-3,-.361E-5,0
CENTISPACE-1 GROUP 05 OBJECT C,2026-138C,2026-06-26T09:22:29.200800,14.15740310,.00093,55.1419,247.1716,303.3524,56.6559,0,U,69584,999,132,-.7136E-4,-.294E-5,0
CENTISPACE-1 GROUP 05 OBJECT D,2026-138D,2026-06-26T14:26:00.510720,14.15928664,.0008547,55.1421,246.3703,300.6782,59.3350,0,U,69585,999,135,-.94312E-4,-.34E-5,0
CENTISPACE-1 GROUP 05 OBJECT E,2026-138E,2026-06-26T21:11:59.911584,14.15994728,.00082905,55.1417,245.3321,301.7539,58.2627,0,U,69586,999,139,-.77403759E-4,-.307E-5,0
CENTISPACE-1 GROUP 05 OBJECT F,2026-138F,2026-06-26T21:12:30.168000,14.15918006,.0008126,55.1420,245.3351,306.3427,53.6797,0,U,69587,999,139,-.87862E-4,-.327E-5,0
CENTISPACE-1 GROUP 05 OBJECT G,2026-138G,2026-06-26T21:10:51.028320,14.16082419,.0007424,55.1419,245.3260,305.6425,54.3857,0,U,69588,999,139,-.73518E-4,-.3E-5,0
SPACEMOBILE-008,2026-139A,2026-06-26T20:27:42.294240,15.12779650,.00039681,52.9939,218.6852,9.5446,350.5619,0,U,69589,999,144,.50443241E-4,.595E-5,0
SPACEMOBILE-009,2026-139B,2026-06-26T20:28:40.040544,15.12673133,.00041527,52.9930,218.6858,3.6025,356.4995,0,U,69590,999,144,.48623354E-4,.56E-5,0
SPACEMOBILE-010,2026-139C,2026-06-26T20:30:11.997792,15.12504453,.00040066,52.9936,218.6946,353.1927,6.9009,0,U,69591,999,145,.48588778E-4,.556E-5,0
KUIPER-00423,2026-140A,2026-06-27T04:00:03.000096,15.38215163,.0013981,51.8812,350.3505,199.6149,39.6803,0,U,69592,999,130,-.27106E-3,-.1079E-3,0
KUIPER-00428,2026-140B,2026-06-27T04:00:03.000096,15.36482767,.0007112,51.8817,350.5672,331.2520,162.2118,0,U,69593,999,270,-.22985E-3,-.8697E-4,0
KUIPER-00481,2026-140C,2026-06-27T04:00:03.000096,15.37522919,.0011477,51.8793,350.3931,208.2202,9.6607,0,U,69594,999,220,-.26279E-3,-.10233E-3,0
KUIPER-00490,2026-140D,2026-06-27T04:00:03.000096,15.37463647,.0006156,51.8790,350.4945,265.9836,260.6422,0,U,69595,999,268,-.98666E-4,-.4077E-4,0
KUIPER-00493,2026-140E,2026-06-27T04:00:03.000096,15.36242147,.0006495,51.8818,350.5909,338.6164,143.2310,0,U,69596,999,217,-.2341E-3,-.8783E-4,0
KUIPER-00496,2026-140F,2026-06-27T04:00:03.000096,15.35362734,.0008235,51.8804,350.6171,344.8940,122.3080,0,U,69597,999,271,-.20999E-3,-.7711E-4,0
KUIPER-00513,2026-140G,2026-06-27T04:00:03.000096,15.37708362,.0006381,51.8820,350.4896,262.7234,268.7991,0,U,69598,999,255,-.20514E-3,-.8109E-4,0
KUIPER-00516,2026-140H,2026-06-27T04:00:03.000096,15.37321046,.0006064,51.8802,350.5113,280.8856,238.3111,0,U,69599,999,270,-.1735E-3,-.6836E-4,0
KUIPER-00517,2026-140J,2026-06-27T04:00:03.000096,15.38720214,.0010228,51.8783,350.4125,223.5910,343.9142,0,U,69600,999,226,-.2305E-3,-.9369E-4,0
KUIPER-00520,2026-140K,2026-06-27T04:00:03.000096,15.37179189,.0005701,51.8830,350.5284,284.9993,228.4989,0,U,69601,999,263,-.17385E-3,-.6818E-4,0
KUIPER-00522,2026-140L,2026-06-27T04:00:03.000096,15.38191283,.0013786,51.8792,350.3464,197.0689,44.0073,0,U,69602,999,220,-.28829E-3,-.11439E-3,0
KUIPER-00528,2026-140M,2026-06-27T04:00:03.000096,15.37032349,.0004653,51.8802,350.5334,290.8004,217.5165,0,U,69603,999,130,-.16106E-3,-.6315E-4,0
KUIPER-00532,2026-140N,2026-06-27T04:00:03.000096,15.36571908,.0004965,51.8802,350.5637,322.3193,171.0432,0,U,69604,999,270,-.14994E-3,-.5824E-4,0
