GUOWANG OBJECT D        
1 69575U 26137D   26177.99652356  .00000039  00000+0  14959-3 0  9991
2 69575  49.9958 216.2639 0011102 257.2979 102.6679 13.89828550  1396
GUOWANG OBJECT E        
1 69576U 26137E   26178.06741802  .00000012  00000+0  12706-3 0  9995
2 69576  50.0017 215.9899 0011459 261.0191  98.9411 13.90071848  1409
GUOWANG OBJECT F        
1 69577U 26137F   26177.85080514  .00000010  00000+0  12509-3 0  9997
2 69577  49.9973 216.8409 0010612 257.8102 102.1608 13.90327837  1374
GUOWANG OBJECT G        
1 69578U 26137G   26177.84998745 -.00000006  00000+0  11154-3 0  9992
2 69578  49.9960 216.8226 0010927 260.4496  99.5168 13.90789764  1374
GUOWANG OBJECT H        
1 69579U 26137H   26176.48489301  .00000037  00000+0  14270-3 0  9990
2 69579  49.9967 222.2731 0010122 259.8752 100.1006 13.92076941  1185
GUOWANG OBJECT J        
1 69580U 26137J   26177.84775112  .00000026  00000+0  13420-3 0  9995
2 69580  49.9963 216.8154 0009809 259.3048 100.6747 13.92262275  1379
CENTISPACE-1 GROUP 05 O*
1 69582U 26138A   26177.88670670 -.00000379  00000+0 -11512-3 0  9998
2 69582  55.1416 245.3462 0010130 301.1301  58.8679 14.15476108  1397
CENTISPACE-1 GROUP 05 O*
1 69583U 26138B   26177.88545062 -.00000361  00000+0 -10558-3 0  9995
2 69583  55.1415 245.3373 0009081 300.8537  59.1544 14.15657211  1399
CENTISPACE-1 GROUP 05 O*
1 69584U 26138C   26177.39061575 -.00000294  00000+0 -71360-4 0  9998
2 69584  55.1419 247.1716 0009300 303.3524  56.6559 14.15740310  1327
CENTISPACE-1 GROUP 05 O*
1 69585U 26138D   26177.60139480 -.00000340  00000+0 -94312-4 0  9998
2 69585  55.1421 246.3703 0008547 300.6782  59.3350 14.15928664  1358
CENTISPACE-1 GROUP 05 O*
1 69586U 26138E   26177.88333231 -.00000307  00000+0 -77404-4 0  9995
2 69586  55.1417 245.3321 0008290 301.7539  58.2627 14.15994728  1399
CENTISPACE-1 GROUP 05 O*
1 69587U 26138F   26177.88368250 -.00000327  00000+0 -87862-4 0  9996
2 69587  55.1420 245.3351 0008126 306.3427  53.6797 14.15918006  1394
CENTISPACE-1 GROUP 05 O*
1 69588U 26138G   26177.88253505 -.00000300  00000+0 -73518-4 0  9997
2 69588  55.1419 245.3260 0007424 305.6425  54.3857 14.16082419  1398
SPACEMOBILE-008         
1 69589U 26139A   26177.85257285  .00000595  00000+0  50443-4 0  9991
2 69589  52.9939 218.6852 0003968   9.5446 350.5619 15.12779650  1443
SPACEMOBILE-009         
1 69590U 26139B   26177.85324121  .00000560  00000+0  48623-4 0  9996
2 69590  52.9930 218.6858 0004152   3.6025 356.4995 15.12673133  1447
SPACEMOBILE-010         
1 69591U 26139C   26177.85430553  .00000556  00000+0  48589-4 0  9990
2 69591  52.9936 218.6946 0004006 353.1927   6.9009 15.12504453  1456
KUIPER-00423            
1 69592U 26140A   26178.16670139 -.00010790  00000+0 -27106-3 0  9998
2 69592  51.8812 350.3505 0013981 199.6149  39.6803 15.38215163  1308
KUIPER-00428            
1 69593U 26140B   26178.16670139 -.00008697  00000+0 -22985-3 0  9992
2 69593  51.8817 350.5672 0007112 331.2520 162.2118 15.36482767  2708
KUIPER-00481            
1 69594U 26140C   26178.16670139 -.00010233  00000+0 -26279-3 0  9992
2 69594  51.8793 350.3931 0011477 208.2202   9.6607 15.37522919  2204
KUIPER-00490            
1 69595U 26140D   26178.16670139 -.00004077  00000+0 -98666-4 0  9992
2 69595  51.8790 350.4945 0006156 265.9836 260.6422 15.37463647  2687
KUIPER-00493            
1 69596U 26140E   26178.16670139 -.00008783  00000+0 -23410-3 0  9995
2 69596  51.8818 350.5909 0006495 338.6164 143.2310 15.36242147  2173
KUIPER-00496            
1 69597U 26140F   26178.16670139 -.00007711  00000+0 -20999-3 0  9995
2 69597  51.8804 350.6171 0008235 344.8940 122.3080 15.35362734  2712
KUIPER-00513            
1 69598U 26140G   26178.16670139 -.00008109  00000+0 -20514-3 0  9991
2 69598  51.8820 350.4896 0006381 262.7234 268.7991 15.37708362  2558
KUIPER-00516            
1 69599U 26140H   26178.16670139 -.00006836  00000+0 -17350-3 0  9991
2 69599  51.8802 350.5113 0006064 280.8856 238.3111 15.37321046  2705
KUIPER-00517            
1 69600U 26140J   26178.16670139 -.00009369  00000+0 -23050-3 0  9992
2 69600  51.8783 350.4125 0010228 223.5910 343.9142 15.38720214  2269
KUIPER-00520            
1 69601U 26140K   26178.16670139 -.00006818  00000+0 -17385-3 0  9993
2 69601  51.8830 350.5284 0005701 284.9993 228.4989 15.37179189  2637
KUIPER-00522            
1 69602U 26140L   26178.16670139 -.00011439  00000+0 -28829-3 0  9994
2 69602  51.8792 350.3464 0013786 197.0689  44.0073 15.38191283  2200
KUIPER-00528            
1 69603U 26140M   26178.16670139 -.00006315  00000+0 -16106-3 0  9997
2 69603  51.8802 350.5334 0004653 290.8004 217.5165 15.37032349  1302
KUIPER-00532            
1 69604U 26140N   26178.16670139 -.00005824  00000+0 -14994-3 0  9995
2 69604  51.8802 350.5637 0004965 322.3193 171.0432 15.36571908  2709
